STARLINK-35697          
1 66539U 25265Z   25340.25002315 -.01964151  00000+0 -20693-1 0  9990
2 66539  43.0006  92.1213 0001267 277.7770 247.3835 15.66564535  3950
STARLINK-35818          
1 66540U 25265AA  25340.25002315 -.01953733  00000+0 -20576-1 0  9996
2 66540  43.0002  92.1168 0001242 281.5375 245.5443 15.66556035  3955
STARLINK-35796          
1 66541U 25265AB  25340.25002315 -.01964209  00000+0 -20694-1 0  9998
2 66541  43.0003  92.1121 0001235 277.5699 251.4257 15.66564046  3952
STARLINK-35833          
1 66542U 25265AC  25340.25002315 -.01963119  00000+0 -20682-1 0  9995
2 66542  43.0003  92.1075 0001206 279.0395 251.8738 15.66562999  3952
STARLINK-35315          
1 66543U 25265AD  25340.25002315 -.01961915  00000+0 -20668-1 0  9992
2 66543  43.0004  92.1022 0001239 275.2888 257.5408 15.66563102  3849
STARLINK-35728          
1 66544U 25265AE  25340.25002315 -.01964433  00000+0 -20697-1 0  9993
2 66544  43.0001  92.0977 0001205 276.4043 258.3431 15.66563824  3952
SHIJIAN-30A             
1 66545U 25266A   25340.29466203  .00018552  00000+0  98048-3 0  9995
2 66545  51.7999   3.0546 0012823 333.4828  26.5491 15.15454500  2608
SHIJIAN-30B             
1 66546U 25266B   25340.29551598  .00022248  00000+0  11701-2 0  9995
2 66546  51.7981   3.0583 0010514 336.5786  23.4710 15.15533742  2609
SHIJIAN-30C             
1 66547U 25266C   25340.29621576  .00018545  00000+0  97777-3 0  9993
2 66547  51.7992   3.0633 0011388 328.7106  31.3191 15.15554040  2602
CZ-2C R/B               
1 66548U 25266D   25340.33148008  .00019020  00000+0  59008-3 0  9997
2 66548  52.0563   1.8052 0084385 151.2357 209.3320 15.29976619  2635
SHIJIAN-28              
1 66549U 25277A   25334.75466579  .00006315  00000+0  62085-3 0  9997
2 66549  14.4344 275.4056 7300519 179.5026 182.3580  2.28019775    48
CZ-7A R/B               
1 66550U 25277B   25339.67288979  .01162886  12817-5  24988-2 0  9992
2 66550  14.4096 273.3314 7188375 182.4898 169.6754  2.46607958   162
