CCSDS_OMM_VERS = 2.0
CREATION_DATE  = 
ORIGINATOR     = 

OBJECT_NAME    = STARLINK-35697
OBJECT_ID      = 2025-265Z
CENTER_NAME    = EARTH
REF_FRAME      = TEME
TIME_SYSTEM    = UTC
MEAN_ELEMENT_THEORY = SGP/SGP4

EPOCH          = 2025-12-06T06:00:02.000160
MEAN_MOTION    = 15.66564535
ECCENTRICITY   = .00012678
INCLINATION    = 43.0006
RA_OF_ASC_NODE = 92.1213
ARG_OF_PERICENTER = 277.7770
MEAN_ANOMALY   = 247.3835

EPHEMERIS_TYPE = 0
CLASSIFICATION_TYPE = U
NORAD_CAT_ID   = 66539
ELEMENT_SET_NO = 999
REV_AT_EPOCH   = 395
BSTAR          = -.20692911E-1
MEAN_MOTION_DOT = -.1964151E-1
MEAN_MOTION_DDOT = 0

CCSDS_OMM_VERS = 2.0
CREATION_DATE  = 
ORIGINATOR     = 

OBJECT_NAME    = STARLINK-35818
OBJECT_ID      = 2025-265AA
CENTER_NAME    = EARTH
REF_FRAME      = TEME
TIME_SYSTEM    = UTC
MEAN_ELEMENT_THEORY = SGP/SGP4

EPOCH          = 2025-12-06T06:00:02.000160
MEAN_MOTION    = 15.66556035
ECCENTRICITY   = .00012421
INCLINATION    = 43.0002
RA_OF_ASC_NODE = 92.1168
ARG_OF_PERICENTER = 281.5375
MEAN_ANOMALY   = 245.5443

EPHEMERIS_TYPE = 0
CLASSIFICATION_TYPE = U
NORAD_CAT_ID   = 66540
ELEMENT_SET_NO = 999
REV_AT_EPOCH   = 395
BSTAR          = -.20575832E-1
MEAN_MOTION_DOT = -.1953733E-1
MEAN_MOTION_DDOT = 0

CCSDS_OMM_VERS = 2.0
CREATION_DATE  = 
ORIGINATOR     = 

OBJECT_NAME    = STARLINK-35796
OBJECT_ID      = 2025-265AB
CENTER_NAME    = EARTH
REF_FRAME      = TEME
TIME_SYSTEM    = UTC
MEAN_ELEMENT_THEORY = SGP/SGP4

EPOCH          = 2025-12-06T06:00:02.000160
MEAN_MOTION    = 15.66564046
ECCENTRICITY   = .0001235
INCLINATION    = 43.0003
RA_OF_ASC_NODE = 92.1121
ARG_OF_PERICENTER = 277.5699
MEAN_ANOMALY   = 251.4257

EPHEMERIS_TYPE = 0
CLASSIFICATION_TYPE = U
NORAD_CAT_ID   = 66541
ELEMENT_SET_NO = 999
REV_AT_EPOCH   = 395
BSTAR          = -.20694304E-1
MEAN_MOTION_DOT = -.1964209E-1
MEAN_MOTION_DDOT = 0

CCSDS_OMM_VERS = 2.0
CREATION_DATE  = 
ORIGINATOR     = 

OBJECT_NAME    = STARLINK-35833
OBJECT_ID      = 2025-265AC
CENTER_NAME    = EARTH
REF_FRAME      = TEME
TIME_SYSTEM    = UTC
MEAN_ELEMENT_THEORY = SGP/SGP4

EPOCH          = 2025-12-06T06:00:02.000160
MEAN_MOTION    = 15.66562999
ECCENTRICITY   = .00012067
INCLINATION    = 43.0003
RA_OF_ASC_NODE = 92.1075
ARG_OF_PERICENTER = 279.0395
MEAN_ANOMALY   = 251.8738

EPHEMERIS_TYPE = 0
CLASSIFICATION_TYPE = U
NORAD_CAT_ID   = 66542
ELEMENT_SET_NO = 999
REV_AT_EPOCH   = 395
BSTAR          = -.2068241E-1
MEAN_MOTION_DOT = -.1963119E-1
MEAN_MOTION_DDOT = 0

CCSDS_OMM_VERS = 2.0
CREATION_DATE  = 
ORIGINATOR     = 

OBJECT_NAME    = STARLINK-35315
OBJECT_ID      = 2025-265AD
CENTER_NAME    = EARTH
REF_FRAME      = TEME
TIME_SYSTEM    = UTC
MEAN_ELEMENT_THEORY = SGP/SGP4

EPOCH          = 2025-12-06T06:00:02.000160
MEAN_MOTION    = 15.66563102
ECCENTRICITY   = .00012394
INCLINATION    = 43.0004
RA_OF_ASC_NODE = 92.1022
ARG_OF_PERICENTER = 275.2888
MEAN_ANOMALY   = 257.5408

EPHEMERIS_TYPE = 0
CLASSIFICATION_TYPE = U
NORAD_CAT_ID   = 66543
ELEMENT_SET_NO = 999
REV_AT_EPOCH   = 384
BSTAR          = -.20667644E-1
MEAN_MOTION_DOT = -.1961915E-1
MEAN_MOTION_DDOT = 0

CCSDS_OMM_VERS = 2.0
CREATION_DATE  = 
ORIGINATOR     = 

OBJECT_NAME    = STARLINK-35728
OBJECT_ID      = 2025-265AE
CENTER_NAME    = EARTH
REF_FRAME      = TEME
TIME_SYSTEM    = UTC
MEAN_ELEMENT_THEORY = SGP/SGP4

EPOCH          = 2025-12-06T06:00:02.000160
MEAN_MOTION    = 15.66563824
ECCENTRICITY   = .00012055
INCLINATION    = 43.0001
RA_OF_ASC_NODE = 92.0977
ARG_OF_PERICENTER = 276.4043
MEAN_ANOMALY   = 258.3431

EPHEMERIS_TYPE = 0
CLASSIFICATION_TYPE = U
NORAD_CAT_ID   = 66544
ELEMENT_SET_NO = 999
REV_AT_EPOCH   = 395
BSTAR          = -.20697432E-1
MEAN_MOTION_DOT = -.1964433E-1
MEAN_MOTION_DDOT = 0

CCSDS_OMM_VERS = 2.0
CREATION_DATE  = 
ORIGINATOR     = 

OBJECT_NAME    = SHIJIAN-30A
OBJECT_ID      = 2025-266A
CENTER_NAME    = EARTH
REF_FRAME      = TEME
TIME_SYSTEM    = UTC
MEAN_ELEMENT_THEORY = SGP/SGP4

EPOCH          = 2025-12-06T07:04:18.799392
MEAN_MOTION    = 15.15454500
ECCENTRICITY   = .00128231
INCLINATION    = 51.7999
RA_OF_ASC_NODE = 3.0546
ARG_OF_PERICENTER = 333.4828
MEAN_ANOMALY   = 26.5491

EPHEMERIS_TYPE = 0
CLASSIFICATION_TYPE = U
NORAD_CAT_ID   = 66545
ELEMENT_SET_NO = 999
REV_AT_EPOCH   = 260
BSTAR          = .98048193E-3
MEAN_MOTION_DOT = .18552E-3
MEAN_MOTION_DDOT = 0

CCSDS_OMM_VERS = 2.0
CREATION_DATE  = 
ORIGINATOR     = 

OBJECT_NAME    = SHIJIAN-30B
OBJECT_ID      = 2025-266B
CENTER_NAME    = EARTH
REF_FRAME      = TEME
TIME_SYSTEM    = UTC
MEAN_ELEMENT_THEORY = SGP/SGP4

EPOCH          = 2025-12-06T07:05:32.580672
MEAN_MOTION    = 15.15533742
ECCENTRICITY   = .00105146
INCLINATION    = 51.7981
RA_OF_ASC_NODE = 3.0583
ARG_OF_PERICENTER = 336.5786
MEAN_ANOMALY   = 23.4710

EPHEMERIS_TYPE = 0
CLASSIFICATION_TYPE = U
NORAD_CAT_ID   = 66546
ELEMENT_SET_NO = 999
REV_AT_EPOCH   = 260
BSTAR          = .11700863E-2
MEAN_MOTION_DOT = .22248E-3
MEAN_MOTION_DDOT = 0

CCSDS_OMM_VERS = 2.0
CREATION_DATE  = 
ORIGINATOR     = 

OBJECT_NAME    = SHIJIAN-30C
OBJECT_ID      = 2025-266C
CENTER_NAME    = EARTH
REF_FRAME      = TEME
TIME_SYSTEM    = UTC
MEAN_ELEMENT_THEORY = SGP/SGP4

EPOCH          = 2025-12-06T07:06:33.041664
MEAN_MOTION    = 15.15554040
ECCENTRICITY   = .00113883
INCLINATION    = 51.7992
RA_OF_ASC_NODE = 3.0633
ARG_OF_PERICENTER = 328.7106
MEAN_ANOMALY   = 31.3191

EPHEMERIS_TYPE = 0
CLASSIFICATION_TYPE = U
NORAD_CAT_ID   = 66547
ELEMENT_SET_NO = 999
REV_AT_EPOCH   = 260
BSTAR          = .97776552E-3
MEAN_MOTION_DOT = .18545E-3
MEAN_MOTION_DDOT = 0

CCSDS_OMM_VERS = 2.0
CREATION_DATE  = 
ORIGINATOR     = 

OBJECT_NAME    = CZ-2C R/B
OBJECT_ID      = 2025-266D
CENTER_NAME    = EARTH
REF_FRAME      = TEME
TIME_SYSTEM    = UTC
MEAN_ELEMENT_THEORY = SGP/SGP4

EPOCH          = 2025-12-06T07:57:19.878912
MEAN_MOTION    = 15.29976619
ECCENTRICITY   = .00843857
INCLINATION    = 52.0563
RA_OF_ASC_NODE = 1.8052
ARG_OF_PERICENTER = 151.2357
MEAN_ANOMALY   = 209.3320

EPHEMERIS_TYPE = 0
CLASSIFICATION_TYPE = U
NORAD_CAT_ID   = 66548
ELEMENT_SET_NO = 999
REV_AT_EPOCH   = 263
BSTAR          = .5900813E-3
MEAN_MOTION_DOT = .1902E-3
MEAN_MOTION_DDOT = 0

CCSDS_OMM_VERS = 2.0
CREATION_DATE  = 
ORIGINATOR     = 

OBJECT_NAME    = SHIJIAN-28
OBJECT_ID      = 2025-277A
CENTER_NAME    = EARTH
REF_FRAME      = TEME
TIME_SYSTEM    = UTC
MEAN_ELEMENT_THEORY = SGP/SGP4

EPOCH          = 2025-11-30T18:06:43.124256
MEAN_MOTION    = 2.28019775
ECCENTRICITY   = .7300519
INCLINATION    = 14.4344
RA_OF_ASC_NODE = 275.4056
ARG_OF_PERICENTER = 179.5026
MEAN_ANOMALY   = 182.3580

EPHEMERIS_TYPE = 0
CLASSIFICATION_TYPE = U
NORAD_CAT_ID   = 66549
ELEMENT_SET_NO = 999
REV_AT_EPOCH   = 4
BSTAR          = .62085E-3
MEAN_MOTION_DOT = .6315E-4
MEAN_MOTION_DDOT = 0

CCSDS_OMM_VERS = 2.0
CREATION_DATE  = 
ORIGINATOR     = 

OBJECT_NAME    = CZ-7A R/B
OBJECT_ID      = 2025-277B
CENTER_NAME    = EARTH
REF_FRAME      = TEME
TIME_SYSTEM    = UTC
MEAN_ELEMENT_THEORY = SGP/SGP4

EPOCH          = 2025-12-05T16:08:57.677856
MEAN_MOTION    = 2.46607958
ECCENTRICITY   = .71883751
INCLINATION    = 14.4096
RA_OF_ASC_NODE = 273.3314
ARG_OF_PERICENTER = 182.4898
MEAN_ANOMALY   = 169.6754

EPHEMERIS_TYPE = 0
CLASSIFICATION_TYPE = U
NORAD_CAT_ID   = 66550
ELEMENT_SET_NO = 999
REV_AT_EPOCH   = 16
BSTAR          = .24987939E-2
MEAN_MOTION_DOT = .1162886E-1
MEAN_MOTION_DDOT = .1281739E-5

